COSMOS 2413 (712)       
1 28509U 04053B   15363.15903730  .00000053  00000-0  00000+0 0  9999
2 28509  63.1317 196.1884 0005604 159.6691 166.5989  2.13101868 85654
COSMOS 2419 (714)       
1 28915U 05050A   15363.84358940 -.00000029  00000-0  00000+0 0  9995
2 28915  65.2475  83.9183 0014377 350.0883 140.2767  2.13112965 77929
COSMOS 2425 (716)       
1 29670U 06062A   15364.36920804 -.00000045  00000-0  10000-3 0  9993
2 29670  65.7049 322.8614 0022864 339.6901 256.2427  2.13104911 70137
COSMOS 2426 (717)       
1 29671U 06062B   15364.08654808 -.00000046  00000-0  10000-3 0  9992
2 29671  65.7220 322.9487 0015809 173.8422  67.3563  2.13102973 70133
COSMOS 2424 (715)       
1 29672U 06062C   15363.35599669 -.00000048  00000-0  10000-3 0  9997
2 29672  65.7068 322.9048 0015245 173.0318  44.5344  2.13102083 70111
COSMOS 2433 (720)       
1 32275U 07052A   15363.45812986 -.00000028  00000-0  10000-3 0  9999
2 32275  65.2625  83.6991 0003028 239.7851 208.9494  2.13104990 63634
COSMOS 2432 (719)       
1 32276U 07052B   15364.03029366 -.00000031  00000-0  10000-3 0  9991
2 32276  65.2745  83.7431 0010746 334.1742 147.7318  2.13104194 63644
COSMOS 2434 (721)       
1 32393U 07065A   15364.28847146 -.00000046  00000-0  00000+0 0  9997
2 32393  65.3243 322.2676 0001305 121.7393 137.4578  2.13102708 62353
COSMOS 2436 (723)       
1 32395U 07065C   15364.26635260 -.00000046  00000-0  10000-3 0  9994
2 32395  65.3376 322.3083 0018069 345.7031 348.5098  2.13102754 62282
COSMOS 2443 (725)       
1 33379U 08046B   15364.50602763 -.00000034  00000-0  10000-3 0  9993
2 33379  65.1912  83.0967 0019169 185.4291 254.4060  2.13101433 56527
COSMOS 2456 (730)       
1 36111U 09070A   15363.68453309  .00000053  00000-0  00000+0 0  9991
2 36111  64.1862 201.9072 0003635 346.2038 338.3776  2.13102983 47002
COSMOS 2457 (733)       
1 36112U 09070B   15363.37421311  .00000052  00000-0  00000+0 0  9995
2 36112  64.1684 201.8489 0007293 146.8200  70.7666  2.13101656 47006
COSMOS 2458 (734)       
1 36113U 09070C   15364.08212331  .00000056  00000-0  10000-3 0  9994
2 36113  64.1735 201.8289 0002976  58.1318  29.7622  2.13101953 47028
COSMOS 2459 (731)       
1 36400U 10007A   15363.64131192 -.00000030  00000-0  10000-3 0  9994
2 36400  65.1696  82.8651 0027197 352.3871 103.7548  2.13102279 45366
COSMOS 2461 (735)       
1 36401U 10007B   15364.11604749 -.00000032  00000-0  10000-3 0  9993
2 36401  65.1627  82.8317 0005572  83.8333 287.0605  2.13102221 45370
COSMOS 2460 (732)       
1 36402U 10007C   15363.24331707 -.00000028  00000-0  10000-3 0  9993
2 36402  65.1527  82.8407 0001274 188.1117 275.3897  2.13101940 45352
COSMOS 2466 (738)       
1 37137U 10041A   15364.24589734 -.00000047  00000-0  10000-3 0  9994
2 37137  64.9085 322.4582 0018822 159.6849 290.4744  2.13102264 41459
COSMOS 2465 (737)       
1 37138U 10041B   15363.28433895 -.00000050  00000-0  00000+0 0  9993
2 37138  64.9257 322.5611 0033697 172.3077  82.6892  2.13102671 41421
COSMOS 2464 (736)       
1 37139U 10041C   15364.22464130 -.00000047  00000-0  00000+0 0  9991
2 37139  64.9273 322.5207 0022085   7.1167  23.8248  2.13102690 41451
COSMOS 2471 (701K)      
1 37372U 11009A   15364.04019615 -.00000032  00000-0  00000+0 0  9993
2 37372  65.1505  82.7635 0008493 229.6985 257.1529  2.13102939 37643
COSMOS 2474 (742)       
1 37829U 11055A   15364.44615947  .00000059  00000-0  00000+0 0  9993
2 37829  64.5102 202.2234 0005724 250.2588 160.7794  2.13101924 33027
COSMOS 2476 (744)       
1 37867U 11064A   15363.60360586  .00000053  00000-0  00000+0 0  9992
2 37867  64.4906 202.3374 0014555 246.0645 284.3506  2.13102024 32356
COSMOS 2477 (745)       
1 37868U 11064B   15363.58771723  .00000053  00000-0  00000+0 0  9999
2 37868  64.4987 202.3764 0012579 247.3712  90.2679  2.13101957 32306
COSMOS 2475 (743)       
1 37869U 11064C   15364.14472753  .00000056  00000-0  00000+0 0  9997
2 37869  64.5061 202.3440 0018321 278.9627  82.0421  2.13102191 32336
COSMOS 2478 (746)       
1 37938U 11071A   15363.42858047 -.00000028  00000-0  00000+0 0  9996
2 37938  65.1774  82.9998 0014196 238.1335 261.2246  2.13088289 31922
COSMOS 2485 (747)       
1 39155U 13019A   15363.29677604  .00000052  00000-0  00000+0 0  9992
2 39155  64.6593 202.2607 0014923 239.8362 100.3913  2.13102108 20815
COSMOS 2492 (754)       
1 39620U 14012A   15363.75564994 -.00000030  00000-0  10000-3 0  9993
2 39620  65.0412  82.8355 0014502 330.4291  34.4822  2.13103484 13783
COSMOS 2500 (755)       
1 40001U 14032A   15364.37460944 -.00000034  00000-0  00000+0 0  9998
2 40001  64.9820  82.8514 0007321 203.1179 140.6893  2.13102873 12001
COSMOS 2501 (702K)      
1 40315U 14075A   15364.45627565 -.00000047  00000-0  00000+0 0  9990
2 40315  64.6953 324.0229 0018582 240.7848 327.7886  2.13101348  8414
